{
  "type": "FeatureCollection",
  "features": [
    {
      "type": "Feature",
      "properties": {
        "norad_id": 40894,
        "name": "GAOFEN-9 01",
        "group": "resource",
        "lat": 73.47656668151028,
        "lon": -9.075706046256284,
        "alt_km": 595.2361262068034,
        "timestamp": "2025-12-04T13:52:00.105329+00:00",
        "meta_object_name": "GAOFEN-9 01",
        "meta_object_id": "2015-047A",
        "meta_epoch": "2025-12-04T07:02:59.576640",
        "meta_mean_motion": 14.82389308,
        "meta_eccentricity": 0.00289035,
        "meta_inclination": 97.6554,
        "meta_ra_of_asc_node": 17.6142,
        "meta_arg_of_pericenter": 60.9857,
        "meta_mean_anomaly": 299.4248,
        "meta_ephemeris_type": 0,
        "meta_classification_type": "U",
        "meta_norad_cat_id": 40894,
        "meta_element_set_no": 999,
        "meta_rev_at_epoch": 55131,
        "meta_bstar": 0.00033850757,
        "meta_mean_motion_dot": 2.679e-05,
        "meta_mean_motion_ddot": 0,
        "tle_line1": "1 40894U 15047A   25338.29374510  .00002679  00000+0  33851-3 0  9990",
        "tle_line2": "2 40894  97.6554  17.6142 0028903  60.9857 299.4248 14.82389308551310"
      },
      "geometry": {
        "type": "Point",
        "coordinates": [
          -9.075706046256284,
          73.47656668151028
        ]
      }
    },
    {
      "type": "Feature",
      "properties": {
        "norad_id": 41026,
        "name": "YAOGAN-28",
        "group": "resource",
        "lat": 76.94218821311243,
        "lon": 83.15407817292913,
        "alt_km": 483.84626284341357,
        "timestamp": "2025-12-04T13:52:00.105339+00:00",
        "meta_object_name": "YAOGAN-28",
        "meta_object_id": "2015-064A",
        "meta_epoch": "2025-12-04T08:47:36.392352",
        "meta_mean_motion": 15.24130116,
        "meta_eccentricity": 0.00120059,
        "meta_inclination": 97.2799,
        "meta_ra_of_asc_node": 116.3968,
        "meta_arg_of_pericenter": 153.7455,
        "meta_mean_anomaly": 206.4394,
        "meta_ephemeris_type": 0,
        "meta_classification_type": "U",
        "meta_norad_cat_id": 41026,
        "meta_element_set_no": 999,
        "meta_rev_at_epoch": 56097,
        "meta_bstar": 0.0007845267,
        "meta_mean_motion_dot": 0.00019075,
        "meta_mean_motion_ddot": 0,
        "tle_line1": "1 41026U 15064A   25338.36639343  .00019075  00000+0  78453-3 0  9998",
        "tle_line2": "2 41026  97.2799 116.3968 0012005 153.7455 206.4394 15.24130116560979"
      },
      "geometry": {
        "type": "Point",
        "coordinates": [
          83.15407817292913,
          76.94218821311243
        ]
      }
    },
    {
      "type": "Feature",
      "properties": {
        "norad_id": 41038,
        "name": "YAOGAN-29",
        "group": "resource",
        "lat": -50.33217397231297,
        "lon": 11.51534173113441,
        "alt_km": 626.9194482812554,
        "timestamp": "2025-12-04T13:52:00.105349+00:00",
        "meta_object_name": "YAOGAN-29",
        "meta_object_id": "2015-069A",
        "meta_epoch": "2025-12-04T07:37:06.541248",
        "meta_mean_motion": 14.82868492,
        "meta_eccentricity": 6.906e-05,
        "meta_inclination": 98.0227,
        "meta_ra_of_asc_node": 1.4618,
        "meta_arg_of_pericenter": 3.8225,
        "meta_mean_anomaly": 356.2994,
        "meta_ephemeris_type": 0,
        "meta_classification_type": "U",
        "meta_norad_cat_id": 41038,
        "meta_element_set_no": 999,
        "meta_rev_at_epoch": 54174,
        "meta_bstar": 0.00013037138,
        "meta_mean_motion_dot": 1.002e-05,
        "meta_mean_motion_ddot": 0,
        "tle_line1": "1 41038U 15069A   25338.31743682  .00001002  00000+0  13037-3 0  9991",
        "tle_line2": "2 41038  98.0227   1.4618 0000690   3.8225 356.2994 14.82868492541742"
      },
      "geometry": {
        "type": "Point",
        "coordinates": [
          11.51534173113441,
          -50.33217397231297
        ]
      }
    },
    {
      "type": "Feature",
      "properties": {
        "norad_id": 41167,
        "name": "KENT RIDGE 1",
        "group": "resource",
        "lat": -1.8552470752456531,
        "lon": -95.25220852756345,
        "alt_km": 493.18776600739693,
        "timestamp": "2025-12-04T13:52:00.105359+00:00",
        "meta_object_name": "KENT RIDGE 1",
        "meta_object_id": "2015-077B",
        "meta_epoch": "2025-12-04T01:18:41.430816",
        "meta_mean_motion": 15.21528347,
        "meta_eccentricity": 0.00086425,
        "meta_inclination": 14.9803,
        "meta_ra_of_asc_node": 275.5817,
        "meta_arg_of_pericenter": 7.7804,
        "meta_mean_anomaly": 352.2651,
        "meta_ephemeris_type": 0,
        "meta_classification_type": "U",
        "meta_norad_cat_id": 41167,
        "meta_element_set_no": 999,
        "meta_rev_at_epoch": 55131,
        "meta_bstar": 0.00031346476,
        "meta_mean_motion_dot": 8.044e-05,
        "meta_mean_motion_ddot": 0,
        "tle_line1": "1 41167U 15077B   25338.05464619  .00008044  00000+0  31346-3 0  9990",
        "tle_line2": "2 41167  14.9803 275.5817 0008642   7.7804 352.2651 15.21528347551314"
      },
      "geometry": {
        "type": "Point",
        "coordinates": [
          -95.25220852756345,
          -1.8552470752456531
        ]
      }
    },
    {
      "type": "Feature",
      "properties": {
        "norad_id": 41194,
        "name": "GAOFEN-4",
        "group": "resource",
        "lat": -0.0915265300341033,
        "lon": 27.304970516758086,
        "alt_km": 35800.34306720635,
        "timestamp": "2025-12-04T13:52:00.105371+00:00",
        "meta_object_name": "GAOFEN-4",
        "meta_object_id": "2015-083A",
        "meta_epoch": "2025-12-03T20:03:59.764032",
        "meta_mean_motion": 1.00273387,
        "meta_eccentricity": 0.00037375,
        "meta_inclination": 0.146,
        "meta_ra_of_asc_node": 80.7672,
        "meta_arg_of_pericenter": 104.6053,
        "meta_mean_anomaly": 294.2325,
        "meta_ephemeris_type": 0,
        "meta_classification_type": "U",
        "meta_norad_cat_id": 41194,
        "meta_element_set_no": 999,
        "meta_rev_at_epoch": 3657,
        "meta_bstar": 0,
        "meta_mean_motion_dot": -3.18e-06,
        "meta_mean_motion_ddot": 0,
        "tle_line1": "1 41194U 15083A   25337.83610838 -.00000318  00000+0  00000+0 0  9994",
        "tle_line2": "2 41194   0.1460  80.7672 0003737 104.6053 294.2325  1.00273387 36570"
      },
      "geometry": {
        "type": "Point",
        "coordinates": [
          27.304970516758086,
          -0.0915265300341033
        ]
      }
    },
    {
      "type": "Feature",
      "properties": {
        "norad_id": 41240,
        "name": "JASON-3",
        "group": "resource",
        "lat": -63.83807936813666,
        "lon": 110.13663138991718,
        "alt_km": 1311.8947123944927,
        "timestamp": "2025-12-04T13:52:00.105382+00:00",
        "meta_object_name": "JASON-3",
        "meta_object_id": "2016-002A",
        "meta_epoch": "2025-12-04T06:49:13.966752",
        "meta_mean_motion": 12.87626087,
        "meta_eccentricity": 0.00071368,
        "meta_inclination": 66.0392,
        "meta_ra_of_asc_node": 175.6015,
        "meta_arg_of_pericenter": 270.3631,
        "meta_mean_anomaly": 89.657,
        "meta_ephemeris_type": 0,
        "meta_classification_type": "U",
        "meta_norad_cat_id": 41240,
        "meta_element_set_no": 999,
        "meta_rev_at_epoch": 46215,
        "meta_bstar": 0.00018505045,
        "meta_mean_motion_dot": -1.5e-07,
        "meta_mean_motion_ddot": 0,
        "tle_line1": "1 41240U 16002A   25338.28418943 -.00000015  00000+0  18505-3 0  9998",
        "tle_line2": "2 41240  66.0392 175.6015 0007136 270.3631  89.6570 12.87626087462153"
      },
      "geometry": {
        "type": "Point",
        "coordinates": [
          110.13663138991718,
          -63.83807936813666
        ]
      }
    },
    {
      "type": "Feature",
      "properties": {
        "norad_id": 41335,
        "name": "SENTINEL-3A",
        "group": "resource",
        "lat": -34.6418718614568,
        "lon": -142.31012802380667,
        "alt_km": 809.2336597490576,
        "timestamp": "2025-12-04T13:52:00.105392+00:00",
        "meta_object_name": "SENTINEL-3A",
        "meta_object_id": "2016-011A",
        "meta_epoch": "2025-12-04T06:07:47.048160",
        "meta_mean_motion": 14.26741743,
        "meta_eccentricity": 9.81e-05,
        "meta_inclination": 98.6218,
        "meta_ra_of_asc_node": 43.3897,
        "meta_arg_of_pericenter": 91.2597,
        "meta_mean_anomaly": 268.8695,
        "meta_ephemeris_type": 0,
        "meta_classification_type": "U",
        "meta_norad_cat_id": 41335,
        "meta_element_set_no": 999,
        "meta_rev_at_epoch": 51026,
        "meta_bstar": 0.00015566242,
        "meta_mean_motion_dot": 3.33e-06,
        "meta_mean_motion_ddot": 0,
        "tle_line1": "1 41335U 16011A   25338.25540565  .00000333  00000+0  15566-3 0  9992",
        "tle_line2": "2 41335  98.6218  43.3897 0000981  91.2597 268.8695 14.26741743510264"
      },
      "geometry": {
        "type": "Point",
        "coordinates": [
          -142.31012802380667,
          -34.6418718614568
        ]
      }
    }
  ]
}